QIANFAN-1               
1 60379U 24140A   25282.18247419  .00000060  00000+0  73399-4 0  9991
2 60379  88.9751 305.9765 0018918  46.7808 313.4919 13.50975776 58632
QIANFAN-2               
1 60380U 24140B   25282.13715791  .00000063  00000+0  78968-4 0  9991
2 60380  88.9737 305.8293 0013353  23.1679 337.0071 13.50967912 58685
QIANFAN-3               
1 60381U 24140C   25282.14544412  .00000051  00000+0  60939-4 0  9999
2 60381  88.9730 305.9659 0014896  34.2649 325.9460 13.50967936 58593
QIANFAN-4               
1 60382U 24140D   25282.19481843  .00000049  00000+0  56976-4 0  9996
2 60382  88.9752 305.8422 0013673  25.3274 334.8544 13.50974920 58720
QIANFAN-5               
1 60383U 24140E   25282.17014478  .00000080  00000+0  10543-3 0  9995
2 60383  88.9729 305.9890 0016497  44.0236 316.2226 13.50971196 58585
QIANFAN-6               
1 60384U 24140F   25282.19075882  .00000054  00000+0  64185-4 0  9997
2 60384  88.9755 305.7157 0013990  30.8038 329.3931 13.50972579 58783
QIANFAN-7               
1 60385U 24140G   25282.18955917  .00000319  00000+0  12367-3 0  9991
2 60385  88.9760 301.3190 0012751 249.7417 110.2407 14.27573274 61182
QIANFAN-8               
1 60386U 24140H   25282.19893141  .00000051  00000+0  59538-4 0  9998
2 60386  88.9757 305.9514 0017486  31.2242 328.9944 13.50970659 58632
